{"type": "FeatureCollection", "features": [ {"type": "Feature", "properties": {"norad_id": 33980, "name": "COSMOS 2251 DEB", "group": "cosmos-2251-debris", "lat": -7.167822605628182, "lon": 67.36061312538428, "alt_km": 716.2749877258693, "timestamp": "2025-12-07T11:27:50.400323+00:00", "meta": {"OBJECT_NAME": "COSMOS 2251 DEB", "OBJECT_ID": "1993-036FP", "EPOCH": "2025-12-06T16:18:10.617984", "MEAN_MOTION": 14.58588486, "ECCENTRICITY": 0.00290229, "INCLINATION": 74.0222, "RA_OF_ASC_NODE": 70.9462, "ARG_OF_PERICENTER": 217.1383, "MEAN_ANOMALY": 264.7863, "EPHEMERIS_TYPE": 0, "CLASSIFICATION_TYPE": "U", "NORAD_CAT_ID": 33980, "ELEMENT_SET_NO": 999, "REV_AT_EPOCH": 88706, "BSTAR": 0.0013801304, "MEAN_MOTION_DOT": 6.436e-05, "MEAN_MOTION_DDOT": 0}, "tle": {"line1": "1 33980U 93036FP  25340.67928956  .00006436  00000+0  13801-2 0  9993", "line2": "2 33980  74.0222  70.9462 0029022 217.1383 264.7863 14.58588486887062"}}, "geometry": {"type": "Point", "coordinates": [67.36061312538428, -7.167822605628182]}}, {"type": "Feature", "properties": {"norad_id": 33982, "name": "COSMOS 2251 DEB", "group": "cosmos-2251-debris", "lat": 1.6642511343377897, "lon": -170.5140285835044, "alt_km": 722.8991056927862, "timestamp": "2025-12-07T11:27:50.400333+00:00", "meta": {"OBJECT_NAME": "COSMOS 2251 DEB", "OBJECT_ID": "1993-036FR", "EPOCH": "2025-12-06T20:41:33.190080", "MEAN_MOTION": 14.60179915, "ECCENTRICITY": 0.00749021, "INCLINATION": 74.071, "RA_OF_ASC_NODE": 11.1333, "ARG_OF_PERICENTER": 57.3429, "MEAN_ANOMALY": 126.0654, "EPHEMERIS_TYPE": 0, "CLASSIFICATION_TYPE": "U", "NORAD_CAT_ID": 33982, "ELEMENT_SET_NO": 999, "REV_AT_EPOCH": 89073, "BSTAR": 0.00064379827, "MEAN_MOTION_DOT": 3.197e-05, "MEAN_MOTION_DDOT": 0}, "tle": {"line1": "1 33982U 93036FR  25340.86218970  .00003197  00000+0  64380-3 0  9994", "line2": "2 33982  74.0710  11.1333 0074902  57.3429 126.0654 14.60179915890734"}}, "geometry": {"type": "Point", "coordinates": [-170.5140285835044, 1.6642511343377897]}}, {"type": "Feature", "properties": {"norad_id": 33983, "name": "COSMOS 2251 DEB", "group": "cosmos-2251-debris", "lat": -64.62384568047388, "lon": 119.84492411056937, "alt_km": 717.1986119484145, "timestamp": "2025-12-07T11:27:50.400343+00:00", "meta": {"OBJECT_NAME": "COSMOS 2251 DEB", "OBJECT_ID": "1993-036FS", "EPOCH": "2025-12-06T23:05:35.960064", "MEAN_MOTION": 14.50633385, "ECCENTRICITY": 0.00214192, "INCLINATION": 74.0488, "RA_OF_ASC_NODE": 157.8967, "ARG_OF_PERICENTER": 261.5249, "MEAN_ANOMALY": 217.6865, "EPHEMERIS_TYPE": 0, "CLASSIFICATION_TYPE": "U", "NORAD_CAT_ID": 33983, "ELEMENT_SET_NO": 999, "REV_AT_EPOCH": 88545, "BSTAR": 0.00086395242, "MEAN_MOTION_DOT": 3.374e-05, "MEAN_MOTION_DDOT": 0}, "tle": {"line1": "1 33983U 93036FS  25340.96222176  .00003374  00000+0  86395-3 0  9996", "line2": "2 33983  74.0488 157.8967 0021419 261.5249 217.6865 14.50633385885451"}}, "geometry": {"type": "Point", "coordinates": [119.84492411056937, -64.62384568047388]}}, {"type": "Feature", "properties": {"norad_id": 33984, "name": "COSMOS 2251 DEB", "group": "cosmos-2251-debris", "lat": 71.78282604951356, "lon": 116.65074951600775, "alt_km": 667.8799095353261, "timestamp": "2025-12-07T11:27:50.400353+00:00", "meta": {"OBJECT_NAME": "COSMOS 2251 DEB", "OBJECT_ID": "1993-036FT", "EPOCH": "2025-12-06T19:26:58.879680", "MEAN_MOTION": 14.6628517, "ECCENTRICITY": 0.00234562, "INCLINATION": 74.0091, "RA_OF_ASC_NODE": 358.5505, "ARG_OF_PERICENTER": 198.1565, "MEAN_ANOMALY": 340.1273, "EPHEMERIS_TYPE": 0, "CLASSIFICATION_TYPE": "U", "NORAD_CAT_ID": 33984, "ELEMENT_SET_NO": 999, "REV_AT_EPOCH": 88979, "BSTAR": 0.0013986374, "MEAN_MOTION_DOT": 7.722e-05, "MEAN_MOTION_DDOT": 0}, "tle": {"line1": "1 33984U 93036FT  25340.81040370  .00007722  00000+0  13986-2 0  9991", "line2": "2 33984  74.0091 358.5505 0023456 198.1565 340.1273 14.66285170889797"}}, "geometry": {"type": "Point", "coordinates": [116.65074951600775, 71.78282604951356]}}, {"type": "Feature", "properties": {"norad_id": 33986, "name": "COSMOS 2251 DEB", "group": "cosmos-2251-debris", "lat": -4.378436201472093, "lon": 133.70279452819835, "alt_km": 777.7391425657215, "timestamp": "2025-12-07T11:27:50.400363+00:00", "meta": {"OBJECT_NAME": "COSMOS 2251 DEB", "OBJECT_ID": "1993-036FV", "EPOCH": "2025-12-06T08:19:44.057280", "MEAN_MOTION": 14.43152982, "ECCENTRICITY": 0.00401201, "INCLINATION": 74.0366, "RA_OF_ASC_NODE": 314.5459, "ARG_OF_PERICENTER": 28.7657, "MEAN_ANOMALY": 43.841, "EPHEMERIS_TYPE": 0, "CLASSIFICATION_TYPE": "U", "NORAD_CAT_ID": 33986, "ELEMENT_SET_NO": 999, "REV_AT_EPOCH": 87936, "BSTAR": 0.0015168962, "MEAN_MOTION_DOT": 5.122e-05, "MEAN_MOTION_DDOT": 0}, "tle": {"line1": "1 33986U 93036FV  25340.34703770  .00005122  00000+0  15169-2 0  9998", "line2": "2 33986  74.0366 314.5459 0040120  28.7657  43.8410 14.43152982879362"}}, "geometry": {"type": "Point", "coordinates": [133.70279452819835, -4.378436201472093]}}, {"type": "Feature", "properties": {"norad_id": 33990, "name": "COSMOS 2251 DEB", "group": "cosmos-2251-debris", "lat": -14.670818847804343, "lon": 118.77071483550598, "alt_km": 1221.4512613652805, "timestamp": "2025-12-07T11:27:50.400373+00:00", "meta": {"OBJECT_NAME": "COSMOS 2251 DEB", "OBJECT_ID": "1993-036FZ", "EPOCH": "2025-12-06T22:17:05.754048", "MEAN_MOTION": 13.49965032, "ECCENTRICITY": 0.0407603, "INCLINATION": 73.9286, "RA_OF_ASC_NODE": 295.3237, "ARG_OF_PERICENTER": 316.6784, "MEAN_ANOMALY": 94.8698, "EPHEMERIS_TYPE": 0, "CLASSIFICATION_TYPE": "U", "NORAD_CAT_ID": 33990, "ELEMENT_SET_NO": 999, "REV_AT_EPOCH": 82651, "BSTAR": 0.0024873586, "MEAN_MOTION_DOT": 2.627e-05, "MEAN_MOTION_DDOT": 0}, "tle": {"line1": "1 33990U 93036FZ  25340.92853882  .00002627  00000+0  24874-2 0  9997", "line2": "2 33990  73.9286 295.3237 0407603 316.6784  94.8698 13.49965032826515"}}, "geometry": {"type": "Point", "coordinates": [118.77071483550598, -14.670818847804343]}}, {"type": "Feature", "properties": {"norad_id": 33992, "name": "COSMOS 2251 DEB", "group": "cosmos-2251-debris", "lat": -34.513314023910944, "lon": -23.474403470708825, "alt_km": 708.4702600119208, "timestamp": "2025-12-07T11:27:50.400383+00:00", "meta": {"OBJECT_NAME": "COSMOS 2251 DEB", "OBJECT_ID": "1993-036GB", "EPOCH": "2025-12-06T11:45:07.240896", "MEAN_MOTION": 14.66140499, "ECCENTRICITY": 0.00516396, "INCLINATION": 74.0239, "RA_OF_ASC_NODE": 349.7913, "ARG_OF_PERICENTER": 109.6586, "MEAN_ANOMALY": 42.0435, "EPHEMERIS_TYPE": 0, "CLASSIFICATION_TYPE": "U", "NORAD_CAT_ID": 33992, "ELEMENT_SET_NO": 999, "REV_AT_EPOCH": 89033, "BSTAR": 0.0012734982, "MEAN_MOTION_DOT": 7.116e-05, "MEAN_MOTION_DDOT": 0}, "tle": {"line1": "1 33992U 93036GB  25340.48966714  .00007116  00000+0  12735-2 0  9990", "line2": "2 33992  74.0239 349.7913 0051639 109.6586  42.0435 14.66140499890333"}}, "geometry": {"type": "Point", "coordinates": [-23.474403470708825, -34.513314023910944]}}, {"type": "Feature", "properties": {"norad_id": 33994, "name": "COSMOS 2251 DEB", "group": "cosmos-2251-debris", "lat": -10.131442916845257, "lon": -162.7835475385815, "alt_km": 742.123268061343, "timestamp": "2025-12-07T11:27:50.400394+00:00", "meta": {"OBJECT_NAME": "COSMOS 2251 DEB", "OBJECT_ID": "1993-036GD", "EPOCH": "2025-12-06T22:40:22.092960", "MEAN_MOTION": 14.41209376, "ECCENTRICITY": 0.00234483, "INCLINATION": 74.0423, "RA_OF_ASC_NODE": 201.1332, "ARG_OF_PERICENTER": 336.4935, "MEAN_ANOMALY": 128.9125, "EPHEMERIS_TYPE": 0, "CLASSIFICATION_TYPE": "U", "NORAD_CAT_ID": 33994, "ELEMENT_SET_NO": 999, "REV_AT_EPOCH": 88336, "BSTAR": 0.00016101271, "MEAN_MOTION_DOT": 4.95e-06, "MEAN_MOTION_DDOT": 0}, "tle": {"line1": "1 33994U 93036GD  25340.94470015  .00000495  00000+0  16101-3 0  9992", "line2": "2 33994  74.0423 201.1332 0023448 336.4935 128.9125 14.41209376883369"}}, "geometry": {"type": "Point", "coordinates": [-162.7835475385815, -10.131442916845257]}}, {"type": "Feature", "properties": {"norad_id": 33995, "name": "COSMOS 2251 DEB", "group": "cosmos-2251-debris", "lat": -8.11163954781583, "lon": -48.68759365970574, "alt_km": 747.9876580147484, "timestamp": "2025-12-07T11:27:50.400404+00:00", "meta": {"OBJECT_NAME": "COSMOS 2251 DEB", "OBJECT_ID": "1993-036GE", "EPOCH": "2025-12-06T19:31:54.930144", "MEAN_MOTION": 14.34721837, "ECCENTRICITY": 0.00605998, "INCLINATION": 74.061, "RA_OF_ASC_NODE": 130.1919, "ARG_OF_PERICENTER": 146.2222, "MEAN_ANOMALY": 214.2815, "EPHEMERIS_TYPE": 0, "CLASSIFICATION_TYPE": "U", "NORAD_CAT_ID": 33995, "ELEMENT_SET_NO": 999, "REV_AT_EPOCH": 87434, "BSTAR": 0.0018355082, "MEAN_MOTION_DOT": 5.286e-05, "MEAN_MOTION_DDOT": 0}, "tle": {"line1": "1 33995U 93036GE  25340.81383021  .00005286  00000+0  18355-2 0  9994", "line2": "2 33995  74.0610 130.1919 0060599 146.2222 214.2815 14.34721837874340"}}, "geometry": {"type": "Point", "coordinates": [-48.68759365970574, -8.11163954781583]}}, {"type": "Feature", "properties": {"norad_id": 33999, "name": "COSMOS 2251 DEB", "group": "cosmos-2251-debris", "lat": 31.146750680011124, "lon": 51.23029511185503, "alt_km": 586.3809674429795, "timestamp": "2025-12-07T11:27:50.400414+00:00", "meta": {"OBJECT_NAME": "COSMOS 2251 DEB", "OBJECT_ID": "1993-036GJ", "EPOCH": "2025-12-06T20:14:04.075008", "MEAN_MOTION": 14.83166854, "ECCENTRICITY": 0.00445936, "INCLINATION": 73.9196, "RA_OF_ASC_NODE": 242.5346, "ARG_OF_PERICENTER": 139.9223, "MEAN_ANOMALY": 220.5259, "EPHEMERIS_TYPE": 0, "CLASSIFICATION_TYPE": "U", "NORAD_CAT_ID": 33999, "ELEMENT_SET_NO": 999, "REV_AT_EPOCH": 89163, "BSTAR": 0.0024558215, "MEAN_MOTION_DOT": 0.0002042, "MEAN_MOTION_DDOT": 0}, "tle": {"line1": "1 33999U 93036GJ  25340.84310272  .00020420  00000+0  24558-2 0  9998", "line2": "2 33999  73.9196 242.5346 0044593 139.9223 220.5259 14.83166854891638"}}, "geometry": {"type": "Point", "coordinates": [51.23029511185503, 31.146750680011124]}}]}